STARLINK-3304           
1 50161U 21125F   26068.77172854  .00001172  00000+0  91740-4 0  9992
2 50161  53.2164 258.7523 0001066  95.9728 264.1386 15.08833438236465
LEMUR-2-LANGER2SPACE    
1 63358U 25061H   26068.93705617  .00006238  00000+0  35148-3 0  9991
2 63358  97.5541  45.3892 0015335 237.4180 122.5571 15.13463796 52602
